IRIDIUM 119             
1 42959U 17061E   23237.55271696  .00000275  00000+0  90998-4 0  9994
2 42959  86.3926  94.3179 0002314  91.2483 268.8978 14.34218394307664
IRIDIUM 107             
1 42960U 17061F   23237.57174526  .00000268  00000+0  88756-4 0  9993
2 42960  86.3929  94.3248 0002357  84.4721 275.6744 14.34217509307677
IRIDIUM 132             
1 42961U 17061G   23237.57808800  .00000216  00000+0  69902-4 0  9998
2 42961  86.3929  94.3082 0002342  86.9779 273.1685 14.34217178307677
IRIDIUM 136             
1 42962U 17061H   23237.60980173  .00000280  00000+0  92989-4 0  9999
2 42962  86.3926  94.2974 0002043  94.1002 266.0427 14.34218636307699
IRIDIUM 139             
1 42963U 17061J   23237.54637499  .00000267  00000+0  88348-4 0  9992
2 42963  86.3927  94.3699 0002360  87.6744 272.4722 14.34216638307697
IRIDIUM 125             
1 42964U 17061K   23237.60345867  .00000453  00000+0  15465-3 0  9991
2 42964  86.3931  94.3878 0002404  88.8555 271.2917 14.34217129307716
IRIDIUM 135             
1 43070U 17083A   23237.50781918  .00000336  00000+0  11306-3 0  9994
2 43070  86.3976  31.0823 0002103  82.3326 277.8108 14.34216713296992
IRIDIUM 138             
1 43071U 17083B   23237.46342078  .00000600  00000+0  20717-3 0  9990
2 43071  86.3955  30.8538 0002366  93.3062 266.8404 14.34218039296978
